NORAD_CAT_ID,OBJECT_NAME,OBJECT_TYPE,EPOCH,MEAN_MOTION,ECCENTRICITY,INCLINATION,RA_OF_ASC_NODE,ARG_OF_PERICENTER,MEAN_ANOMALY,BSTAR,MEAN_MOTION_DOT,MEAN_MOTION_DDOT,TLE_LINE0,TLE_LINE1,TLE_LINE2,SEMIMAJOR_AXIS,PERIOD,APOGEE,PERIGEE,DECAYED
55391.0,STARLINK-5077,PAYLOAD,2024-03-07 12:55:18,14.97522688,0.0002882,69.9985,109.7685,272.6778,87.4051,0.0002108,2.372e-05,0.0,0 STARLINK-5077,1 55391U 23014A   24067.53840617  .00002372  00000-0  21080-3 0  9994,2 55391  69.9985 109.7685 0002882 272.6778  87.4051 14.97522688 62405,6952.691,96.159,576.559,572.552,0.0
55391.0,STARLINK-5077,PAYLOAD,2024-03-08 12:58:05,14.97527339,0.000277,69.9988,107.2453,274.1607,85.9235,6.582e-05,6.77e-06,0.0,0 STARLINK-5077,1 55391U 23014A   24068.54034600  .00000677  00000-0  65820-4 0  9990,2 55391  69.9988 107.2453 0002770 274.1607  85.9235 14.97527339 62559,6952.676,96.159,576.467,572.615,0.0
55391.0,STARLINK-5077,PAYLOAD,2024-03-08 19:22:50,14.97526573,0.0002693,69.9989,106.5722,277.2174,82.8678,-2.1326e-05,-3.41e-06,0.0,0 STARLINK-5077,1 55391U 23014A   24068.80753225 -.00000341  00000-0 -21326-4 0  9993,2 55391  69.9989 106.5722 0002693 277.2174  82.8678 14.97526573 61654,6952.679,96.159,576.416,572.671,0.0
55391.0,STARLINK-5077,PAYLOAD,2024-03-09 11:24:42,14.97542105,0.000236,69.999,104.8911,265.9983,94.0906,-0.00040328,-4.804e-05,0.0,0 STARLINK-5077,1 55391U 23014A   24069.47548998 -.00004804  00000-0 -40328-3 0  9996,2 55391  69.9990 104.8911 0002360 265.9983  94.0906 14.97542105 62693,6952.63,96.158,576.136,572.855,0.0
55391.0,STARLINK-5077,PAYLOAD,2024-03-09 19:25:38,14.97532707,0.0002663,69.999,104.0496,271.085,89.0004,-0.00017668,-2.157e-05,0.0,0 STARLINK-5077,1 55391U 23014A   24069.80946923 -.00002157  00000-0 -17668-3 0  9993,2 55391  69.9990 104.0496 0002663 271.0850  89.0004 14.97532707 61802,6952.66,96.158,576.376,572.673,0.0
55391.0,STARLINK-5077,PAYLOAD,2024-03-10 11:27:29,14.97526644,0.0002827,69.9986,102.3673,267.9884,92.0951,1.1126e-05,3.8e-07,0.0,0 STARLINK-5077,1 55391U 23014A   24070.47742690  .00000038  00000-0  11126-4 0  9991,2 55391  69.9986 102.3673 0002827 267.9884  92.0951 14.97526644 62841,6952.678,96.159,576.509,572.578,0.0
55391.0,STARLINK-5077,PAYLOAD,2024-03-11 05:05:32,14.97518631,0.0002881,69.9985,100.5169,268.2093,91.8735,2.4009e-05,1.88e-06,0.0,0 STARLINK-5077,1 55391U 23014A   24071.21218691  .00000188  00000-0  24009-4 0  9993,2 55391  69.9985 100.5169 0002881 268.2093  91.8735 14.97518631 62019,6952.703,96.159,576.571,572.565,0.0
55391.0,STARLINK-5077,PAYLOAD,2024-03-11 11:30:17,14.9751953,0.0002902,69.9986,99.8439,268.2385,91.8441,1.5846e-05,9.3e-07,0.0,0 STARLINK-5077,1 55391U 23014A   24071.47937093  .00000093  00000-0  15846-4 0  9999,2 55391  69.9986  99.8439 0002902 268.2385  91.8441 14.97519530 62998,6952.7,96.159,576.583,572.548,0.0
55391.0,STARLINK-5077,PAYLOAD,2024-03-12 05:08:20,14.9752354,0.0002906,69.9986,97.9939,268.1779,91.9047,1.1704e-06,-7.9e-07,0.0,0 STARLINK-5077,1 55391U 23014A   24072.21412456 -.00000079  00000-0  11704-5 0  9998,2 55391  69.9986  97.9939 0002906 268.1779  91.9047 14.97523540 62160,6952.688,96.159,576.573,572.532,0.0
55391.0,STARLINK-5077,PAYLOAD,2024-03-12 11:33:05,14.97523383,0.0002914,69.9986,97.321,268.121,91.9615,-1.0474e-05,-2.15e-06,0.0,0 STARLINK-5077,1 55391U 23014A   24072.48130880 -.00000215  00000-0 -10474-4 0  9990,2 55391  69.9986  97.3210 0002914 268.1210  91.9615 14.97523383 63140,6952.688,96.159,576.579,572.527,0.0
55391.0,STARLINK-5077,PAYLOAD,2024-03-13 11:35:52,14.97520946,0.000298,69.9987,94.798,269.1572,90.9245,2.2864e-05,1.75e-06,0.0,0 STARLINK-5077,1 55391U 23014A   24073.48324947  .00000175  00000-0  22864-4 0  9999,2 55391  69.9987  94.7980 0002980 269.1572  90.9245 14.97520946 62353,6952.696,96.159,576.633,572.489,0.0
55391.0,STARLINK-5077,PAYLOAD,2024-03-13 18:00:37,14.97520884,0.0002962,69.9989,94.1252,269.366,90.7159,1.7411e-05,1.11e-06,0.0,0 STARLINK-5077,1 55391U 23014A   24073.75043382  .00000111  00000-0  17411-4 0  9992,2 55391  69.9989  94.1252 0002962 269.3660  90.7159 14.97520884 63333,6952.696,96.159,576.621,572.502,0.0
55391.0,STARLINK-5077,PAYLOAD,2024-03-14 06:50:06,14.97523286,0.0003034,69.9987,92.7786,274.1816,85.8996,2.9988e-05,2.58e-06,0.0,0 STARLINK-5077,1 55391U 23014A   24074.28479977  .00000258  00000-0  29988-4 0  9998,2 55391  69.9987  92.7786 0003034 274.1816  85.8996 14.97523286 63417,6952.689,96.159,576.663,572.444,0.0
55391.0,STARLINK-5077,PAYLOAD,2024-03-14 11:38:40,14.97524682,0.000302,69.9986,92.274,273.8194,86.2619,4.3466e-05,4.16e-06,0.0,0 STARLINK-5077,1 55391U 23014A   24074.48518617  .00000416  00000-0  43466-4 0  9998,2 55391  69.9986  92.2740 0003020 273.8194  86.2619 14.97524682 62508,6952.684,96.159,576.649,572.45,0.0
55391.0,STARLINK-5077,PAYLOAD,2024-03-15 10:05:16,14.97523187,0.0002995,69.9986,89.9191,273.6387,86.443,3.1358e-05,2.74e-06,0.0,0 STARLINK-5077,1 55391U 23014A   24075.42033050  .00000274  00000-0  31358-4 0  9995,2 55391  69.9986  89.9191 0002995 273.6387  86.4430 14.97523187 63584,6952.689,96.159,576.636,572.472,0.0
55391.0,STARLINK-5077,PAYLOAD,2024-03-16 03:43:19,14.97522578,0.0002939,69.9985,88.0689,269.0962,90.986,-1.3343e-05,-2.48e-06,0.0,0 STARLINK-5077,1 55391U 23014A   24076.15508717 -.00000248  00000-0 -13343-4 0  9990,2 55391  69.9985  88.0689 0002939 269.0962  90.9860 14.97522578 62759,6952.691,96.159,576.599,572.513,0.0
55391.0,STARLINK-5077,PAYLOAD,2024-03-16 10:08:04,14.97522251,0.0002891,69.9986,87.3961,266.3884,93.6944,-7.7903e-06,-1.83e-06,0.0,0 STARLINK-5077,1 55391U 23014A   24076.42227096 -.00000183  00000-0 -77903-5 0  9999,2 55391  69.9986  87.3961 0002891 266.3884  93.6944 14.97522251 63735,6952.692,96.159,576.567,572.547,0.0
55391.0,STARLINK-5077,PAYLOAD,2024-03-17 03:46:07,14.97521662,0.000289,69.9987,85.5459,265.6071,94.4757,5.5249e-06,-2.8e-07,0.0,0 STARLINK-5077,1 55391U 23014A   24077.15702667 -.00000028  00000-0  55249-5 0  9998,2 55391  69.9987  85.5459 0002890 265.6071  94.4757 14.97521662 62901,6952.694,96.159,576.568,572.549,0.0
55391.0,STARLINK-5077,PAYLOAD,2024-03-17 10:10:51,14.97521654,0.0002935,69.9986,84.8728,267.9443,92.1379,2.2793e-06,-6.6e-07,0.0,0 STARLINK-5077,1 55391U 23014A   24077.42421095 -.00000066  00000-0  22793-5 0  9991,2 55391  69.9986  84.8728 0002935 267.9443  92.1379 14.97521654 63883,6952.694,96.159,576.599,572.518,0.0
55391.0,STARLINK-5077,PAYLOAD,2024-03-18 03:48:54,14.97521487,0.0002955,69.9986,83.0221,271.1312,88.9508,2.7403e-05,2.28e-06,0.0,0 STARLINK-5077,1 55391U 23014A   24078.15896664  .00000228  00000-0  27403-4 0  9991,2 55391  69.9986  83.0221 0002955 271.1312  88.9508 14.97521487 63056,6952.694,96.159,576.614,572.505,0.0
55391.0,STARLINK-5077,PAYLOAD,2024-03-18 10:13:39,14.97521419,0.0002956,69.9986,82.3492,271.1624,88.9196,2.5325e-05,2.04e-06,0.0,0 STARLINK-5077,1 55391U 23014A   24078.42615089  .00000204  00000-0  25325-4 0  9996,2 55391  69.9986  82.3492 0002956 271.1624  88.9196 14.97521419 64032,6952.694,96.159,576.615,572.504,0.0
55391.0,STARLINK-5077,PAYLOAD,2024-03-19 10:16:26,14.97527742,0.0002961,69.9987,79.8257,272.0124,88.0696,8.7767e-05,9.34e-06,0.0,0 STARLINK-5077,1 55391U 23014A   24079.42808427  .00000934  00000-0  87767-4 0  9995,2 55391  69.9987  79.8257 0002961 272.0124  88.0696 14.97527742 63247,6952.675,96.158,576.599,572.481,0.0
55391.0,STARLINK-5077,PAYLOAD,2024-03-20 00:42:07,14.97522052,0.0002785,69.9992,78.3126,271.085,88.999,2.5329e-05,2.04e-06,0.0,0 STARLINK-5077,1 55391U 23014A   24080.02925291  .00000204  00000-0  25329-4 0  9998,2 55391  69.9992  78.3126 0002785 271.0850  88.9990 14.97522052 63336,6952.693,96.159,576.494,572.621,0.0
55391.0,STARLINK-5077,PAYLOAD,2024-03-20 10:19:14,14.97508308,0.0002447,69.9995,77.3036,264.2576,95.8304,0.00023594,2.665e-05,0.0,0 STARLINK-5077,1 55391U 23014A   24080.43003342  .00002665  00000-0  23594-3 0  9991,2 55391  69.9995  77.3036 0002447 264.2576  95.8304 14.97508308 63392,6952.735,96.16,576.301,572.899,0.0
55391.0,STARLINK-5077,PAYLOAD,2024-03-21 05:33:27,14.97528239,0.0002653,69.9993,75.2831,264.9603,95.1253,8.5081e-05,9.02e-06,0.0,0 STARLINK-5077,1 55391U 23014A   24081.23157312  .00000902  00000-0  85081-4 0  9999,2 55391  69.9993  75.2831 0002653 264.9603  95.1253 14.97528239 63512,6952.673,96.158,576.383,572.694,0.0
55391.0,STARLINK-5077,PAYLOAD,2024-03-21 10:22:01,14.97530773,0.0002617,69.9996,74.7799,263.9726,96.1134,6.9336e-05,7.18e-06,0.0,0 STARLINK-5077,1 55391U 23014A   24081.43195903  .00000718  00000-0  69336-4 0  9999,2 55391  69.9996  74.7799 0002617 263.9726  96.1134 14.97530773 64489,6952.666,96.158,576.35,572.711,0.0
55391.0,STARLINK-5077,PAYLOAD,2024-03-21 16:46:46,14.97528226,0.0002687,69.9995,74.1068,270.7934,89.2917,7.7982e-06,-1e-08,0.0,0 STARLINK-5077,1 55391U 23014A   24081.69914542 -.00000001  00000-0  77982-5 0  9998,2 55391  69.9995  74.1068 0002687 270.7934  89.2917 14.97528226 64522,6952.673,96.158,576.407,572.67,0.0
55391.0,STARLINK-5077,PAYLOAD,2024-03-22 04:00:04,14.97520322,0.0002867,69.9985,72.9286,266.4337,93.6494,-1.4386e-06,-1.09e-06,0.0,0 STARLINK-5077,1 55391U 23014A   24082.16672185 -.00000109  00000-0 -14386-5 0  9994,2 55391  69.9985  72.9286 0002867 266.4337  93.6494 14.97520322 63659,6952.698,96.159,576.556,572.57,0.0
55391.0,STARLINK-5077,PAYLOAD,2024-03-22 08:48:38,14.97521671,0.0002531,69.9995,72.4247,263.4487,96.6383,3.305e-05,2.94e-06,0.0,0 STARLINK-5077,1 55391U 23014A   24082.36710841  .00000294  00000-0  33050-4 0  9999,2 55391  69.9995  72.4247 0002531 263.4487  96.6383 14.97521671 64629,6952.694,96.159,576.318,572.799,0.0
55391.0,STARLINK-5077,PAYLOAD,2024-03-23 04:02:52,14.97519054,0.0002792,69.9998,70.4061,264.2787,95.8053,-8.1382e-05,-1.043e-05,0.0,0 STARLINK-5077,1 55391U 23014A   24083.16866545 -.00001043  00000-0 -81382-4 0  9997,2 55391  69.9998  70.4061 0002792 264.2787  95.8053 14.97519054 63801,6952.702,96.159,576.508,572.626,0.0
